      2.10          N: GNSS NAV DATA                        RINEX VERSION / TYPE
fic2rin                                 04/19/2023 00:17:59 PGM / RUN BY / DATE
                                                            END OF HEADER
13 23  4 18  6  0  0.0  .507407356054D-03  .557065504836D-11  .000000000000D+00
     .860000000000D+02 -.903750000000D+02  .458376236067D-08  .231314464982D+01
    -.477582216263D-05  .685915700160D-02  .851228833199D-05  .515366796303D+04
     .194400000000D+06 -.149011611938D-07 -.104766962072D+01 -.156462192535D-06
     .969477095572D+00  .219500000000D+03  .915041330139D+00 -.805676416800D-08
    -.595381942905D-09  .100000000000D+01  .225800000000D+04  .000000000000D+00
     .340000000000D+01  .000000000000D+00 -.111758708954D-07  .860000000000D+02
     .187200000000D+06  .400000000000D+01
19 23  4 18  6  0  0.0  .305172521621D-03  .511590769747D-11  .000000000000D+00
     .500000000000D+02 -.881562500000D+02  .421731852539D-08 -.143459427510D+01
    -.449828803539D-05  .929109880235D-02  .817701220512D-05  .515361410141D+04
     .194400000000D+06 -.117346644402D-06  .206287136194D+01  .186264514923D-08
     .973574220017D+00  .231843750000D+03  .227350034668D+01 -.813641034272D-08
    -.383587406527D-09  .100000000000D+01  .225800000000D+04  .000000000000D+00
     .240000000000D+01  .000000000000D+00 -.153668224812D-07  .500000000000D+02
     .187200000000D+06  .400000000000D+01
17 23  4 18  6  0  0.0  .711098778993D-03  .181898940355D-11  .000000000000D+00
     .330000000000D+02 -.915937500000D+02  .415160150230D-08  .267713346243D+01
    -.461935997009D-05  .135146717075D-01  .721402466297D-05  .515374681282D+04
     .194400000000D+06  .167638063431D-06  .201828774704D+01  .149011611938D-07
     .974511147364D+00  .245000000000D+03 -.141146703830D+01 -.781639701288D-08
    -.549308595194D-09  .100000000000D+01  .225800000000D+04  .000000000000D+00
     .240000000000D+01  .000000000000D+00 -.111758708954D-07  .330000000000D+02
     .187200000000D+06  .400000000000D+01
25 23  4 18  6  0  0.0  .436445698142D-03  .284217094304D-11  .000000000000D+00
     .880000000000D+02  .806562500000D+02  .502306637373D-08 -.101509335508D+01
     .428780913353D-05  .111532554729D-01  .443309545517D-05  .515374549484D+04
     .194400000000D+06  .689178705215D-07  .896721098776D+00  .266358256340D-06
     .953484301043D+00  .289468750000D+03  .104838623407D+01 -.862393064990D-08
     .270011247052D-09  .100000000000D+01  .225800000000D+04  .000000000000D+00
     .240000000000D+01  .000000000000D+00  .558793544769D-08  .880000000000D+02
     .187200000000D+06  .400000000000D+01
18 23  4 18  6  0  0.0 -.229096040130D-03 -.164845914696D-10  .000000000000D+00
     .217000000000D+03 -.781250000000D+00  .391802034413D-08  .673393947069D+00
     .372529029846D-07  .308826460969D-02  .130794942379D-04  .515368366051D+04
     .194400000000D+06  .651925802231D-07  .302189770429D+01  .447034835815D-07
     .974002353233D+00  .136062500000D+03  .313884842554D+01 -.770996400809D-08
     .252153360342D-09  .100000000000D+01  .225800000000D+04  .000000000000D+00
     .240000000000D+01  .000000000000D+00 -.838190317154D-08  .217000000000D+03
     .187200000000D+06  .400000000000D+01
11 23  4 18  6  0  0.0 -.166316516697D-03 -.127329258248D-10  .000000000000D+00
     .233000000000D+03  .138437500000D+02  .405695470273D-08  .208737013564D+01
     .782310962677D-06  .764339463785D-03  .133756548166D-04  .515373936462D+04
     .194400000000D+06 -.335276126862D-07  .305419644267D+01  .279396772385D-07
     .965514518629D+00  .117156250000D+03 -.279820823898D+01 -.783032616451D-08
     .343942898031D-09  .100000000000D+01  .225800000000D+04  .000000000000D+00
     .240000000000D+01  .000000000000D+00 -.884756445885D-08  .745000000000D+03
     .187200000000D+06  .400000000000D+01
23 23  4 18  6  0  0.0  .176364555955D-04  .261479726760D-11  .000000000000D+00
     .290000000000D+02  .605000000000D+02  .469055252320D-08 -.379679150292D+00
     .320002436638D-05  .307855580468D-02  .521354377270D-05  .515364933014D+04
     .194400000000D+06 -.130385160446D-07 -.226213517165D+01  .130385160446D-07
     .973125759554D+00  .285093750000D+03 -.308818485728D+01 -.827891627867D-08
     .536808074497D-09  .100000000000D+01  .225800000000D+04  .000000000000D+00
     .240000000000D+01  .000000000000D+00 -.838190317154D-08  .541000000000D+03
     .187200000000D+06  .400000000000D+01
14 23  4 18  6  0  0.0  .286102294922D-04  .117097442853D-10  .000000000000D+00
     .143000000000D+03  .678125000000D+02  .510449833713D-08 -.830396922256D+00
     .341981649399D-05  .297760777175D-02  .406242907047D-05  .515366770744D+04
     .194400000000D+06  .117346644402D-06  .940540154644D+00 -.149011611938D-06
     .949129401655D+00  .298156250000D+03 -.305922613058D+01 -.858142887953D-08
     .208580116771D-09  .100000000000D+01  .225800000000D+04  .000000000000D+00
     .240000000000D+01  .000000000000D+00 -.791624188423D-08  .911000000000D+03
     .187200000000D+06  .400000000000D+01
22 23  4 18  6  0  0.0  .466149300337D-03  .682121026330D-11  .000000000000D+00
     .720000000000D+02 -.879062500000D+02  .465555106525D-08  .251261148330D+01
    -.462681055069D-05  .142663404113D-01  .724755227566D-05  .515362146187D+04
     .194400000000D+06  .633299350739D-07 -.110245134872D+01 -.193715095520D-06
     .962282897482D+00  .235968750000D+03 -.181192146274D+01 -.799569019545D-08
    -.621097299767D-09  .100000000000D+01  .225800000000D+04  .000000000000D+00
     .240000000000D+01  .630000000000D+02 -.791624188423D-08  .720000000000D+02
     .187200000000D+06  .400000000000D+01
1  23  4 18  5 59 44.0  .192339532077D-03 -.329691829393D-11  .000000000000D+00
     .210000000000D+02  .196875000000D+02  .363265131451D-08  .520264228899D+00
     .931322574615D-06  .127141996054D-01  .129491090775D-04  .515365072823D+04
     .194384000000D+06 -.173225998878D-06  .302034021002D+01  .126659870148D-06
     .990129613341D+00  .149125000000D+03  .949536464462D+00 -.772282168652D-08
     .158220876249D-09  .100000000000D+01  .225800000000D+04  .000000000000D+00
     .240000000000D+01  .000000000000D+00  .465661287308D-08  .210000000000D+02
     .187980000000D+06  .400000000000D+01
13 23  4 18  5 59 44.0  .507406424731D-03  .557065504836D-11  .000000000000D+00
     .400000000000D+02 -.903750000000D+02  .458340520294D-08  .231081103069D+01
    -.477582216263D-05  .685915397480D-02  .851228833199D-05  .515366796303D+04
     .194384000000D+06 -.149011611938D-07 -.104766941591D+01 -.156462192535D-06
     .969477095572D+00  .219500000000D+03  .915041166292D+00 -.805676416800D-08
    -.595739100639D-09  .100000000000D+01  .225800000000D+04  .000000000000D+00
     .240000000000D+01  .000000000000D+00 -.111758708954D-07  .400000000000D+02
     .188040000000D+06  .400000000000D+01
1  23  4 18  7 59 44.0  .192316249013D-03 -.329691829393D-11  .000000000000D+00
     .220000000000D+02  .190625000000D+01  .348228790841D-08  .157025592193D+01
     .838190317154D-07  .127152019413D-01  .132322311401D-04  .515365578461D+04
     .201584000000D+06 -.271946191788D-06  .302028443188D+01 -.372529029846D-07
     .990130849507D+00  .141218750000D+03  .949731889837D+00 -.764889003554D-08
     .188222125921D-09  .100000000000D+01  .225800000000D+04  .000000000000D+00
     .240000000000D+01  .000000000000D+00  .465661287308D-08  .220000000000D+02
     .194400000000D+06  .400000000000D+01
